FLOCK 4G-14             
1 62667U 25009BL  26141.18903945  .00007568  00000+0  27434-3 0  9994
2 62667  97.4022 223.1452 0005571  67.0314 293.1514 15.28630811 74776
JAY-C                   
1 62668U 25009BM  26141.23318991  .00002503  00000+0  11217-3 0  9998
2 62668  97.3960 220.5944 0006053  80.3377 279.8543 15.22149223132276
JAY-D1                  
1 62669U 25009BN  26141.23232141  .00002494  00000+0  11182-3 0  9991
2 62669  97.4030 221.0087 0006837  82.6023 277.5990 15.22121865132276
FLOCK 4G-10             
1 62670U 25009BP  26141.20308622  .00007022  00000+0  25443-3 0  9995
2 62670  97.3923 222.5225 0005915  80.9863 279.2046 15.28670497132410
SKYBEE-A01              
1 62671U 25009BQ  26141.24238289  .00001692  00000+0  79701-4 0  9995
2 62671  97.3991 220.3040 0006852  74.5251 285.6741 15.20858624132244
TRANSPORTER-12 OBJECT BR
1 62672U 25009BR  26141.22262493  .00002853  00000+0  12535-3 0  9999
2 62672  97.3953 220.7354 0006192  76.6570 283.5356 15.22708007132283
LEO EXPRESS 2           
1 62673U 25009BS  26139.98101738  .00004021  00000+0  16103-3 0  9998
2 62673  97.4418 214.1566 0004502 123.3899 236.7770 15.25623836132290
TRANSPORTER-12 OBJECT BT
1 62674U 25009BT  26141.17201421  .00008034  00000+0  28335-3 0  9991
2 62674  97.4054 223.7083 0005719  62.5306 297.6515 15.29511894132438
FLOCK 4G-36             
1 62675U 25009BU  26141.19792331  .00006888  00000+0  24910-3 0  9999
2 62675  97.4014 223.0756 0005846  69.8630 290.3238 15.28744407 74777
FOSSASAT-2E19 (TAT-E)   
1 62676U 25009BV  26141.20288204  .00001808  00000+0  84641-4 0  9996
2 62676  97.3963 219.9640 0006809  78.8663 281.3338 15.20990960 74592
ELEVATION-1             
1 62677U 25009BW  26141.17909612  .00018629  00000+0  46169-3 0  9997
2 62677  97.3834 226.0919 0004321  73.2216 286.9504 15.40436564132664
FLOCK 4G-15             
1 62678U 25009BX  26141.20723200  .00007151  00000+0  25822-3 0  9990
2 62678  97.4013 223.2202 0005896  66.1922 293.9935 15.28775996132423
FLOCK 4G-30             
1 62679U 25009BY  26141.18386389  .00025483  00000+0  87460-3 0  9995
2 62679  97.3919 222.5614 0004366  84.8586 275.3152 15.30122675132418
FLOCK 4G-18             
1 62680U 25009BZ  26141.20558622  .00006446  00000+0  23348-3 0  9994
2 62680  97.4013 223.0453 0006532  75.8925 284.3040 15.28713788132411
FLOCK 4G-17             
1 62681U 25009CA  26141.17432011  .00007616  00000+0  27352-3 0  9993
2 62681  97.3923 222.7121 0005976  79.9868 280.2046 15.28930207132420
FOREST-3                
1 62682U 25009CB  26141.19041545  .00004317  00000+0  17887-3 0  9991
2 62682  97.3903 221.0146 0006624  84.8876 275.3117 15.24415134132329
IRIS-F2                 
1 62684U 25009CD  26140.27165293  .00003216  00000+0  12787-3 0  9999
2 62684  97.3891 220.3568 0006890  92.6907 267.5120 15.25992777132202
FLOCK 4G-33             
1 62685U 25009CE  26141.21972934  .00004400  00000+0  17852-3 0  9997
2 62685  97.3944 221.4067 0006965  74.2214 285.9791 15.25109484 74699
FOSSASAT-2E18 (TAT-A)   
1 62686U 25009CF  26141.15709334  .00001809  00000+0  84895-4 0  9995
2 62686  97.3976 219.9806 0007600  76.7836 283.4247 15.20886670 74583
BLUEBON                 
1 62688U 25009CH  26141.18177837  .00005684  00000+0  19675-3 0  9995
2 62688  97.3982 224.3622 0003095  89.5679 270.5917 15.30266395 74846
TRANSPORTER-12 OBJECT CL
1 62691U 25009CL  26141.16784145  .00025863  00000+0  57146-3 0  9999
2 62691  97.3762 225.9155 0000664 300.0342  60.0840 15.43832393 75020
LEMUR-2-WILSON          
1 62694U 25009CP  26141.19048216  .00001179  00000+0  11295-3 0  9996
2 62694  97.7029 220.1313 0004642 117.3987 242.7707 14.95031625 73327
CONNECTA IOT-8          
1 62695U 25009CQ  26141.16560301  .00000839  00000+0  85723-4 0  9998
2 62695  97.7080 219.5571 0004340  92.7866 267.3851 14.93142480 73266
LEMUR-2-STAR-FOX        
1 62696U 25009CR  26141.18339819  .00005627  00000+0  43358-3 0  9996
2 62696  97.6893 223.0025 0001640 188.9187 171.2008 15.02029416 73504
IRIDE-MS2-HEO-1         
1 62697U 25009CS  26141.24185379  .00001440  00000+0  13933-3 0  9999
2 62697  97.7046 220.0463 0003946  96.8137 263.3532 14.94287416 73312
ICEYE-X42               
1 62698U 25009CT  26141.17677443  .00001496  00000+0  15363-3 0  9990
2 62698  97.7397 219.9764 0001737 102.6060 257.5354 14.91852203 73260
LEMUR-2-ARIANNA         
1 62699U 25009CU  26141.18125720  .00006244  00000+0  48112-3 0  9992
2 62699  97.6840 222.7959 0001982 206.3606 153.7518 15.01981667 73506
ICEYE-X41               
1 62700U 25009CV  26141.19364159  .00001487  00000+0  13578-3 0  9999
2 62700  97.7072 221.1166 0003049 105.2833 254.8726 14.96557425 73378
FIREFLY-1               
1 62701U 25009CW  26141.28096343  .00000861  00000+0  88697-4 0  9997
2 62701  97.7071 219.9693 0005443  64.3344 295.8437 14.92787834 73302
NORSAT 4                
1 62702U 25009CX  26141.27220658  .00000902  00000+0  87815-4 0  9992
2 62702  97.7048 220.4502 0003031 112.4441 247.7101 14.94930872 73349
