OBJECT_NAME,OBJECT_ID,EPOCH,MEAN_MOTION,ECCENTRICITY,INCLINATION,RA_OF_ASC_NODE,ARG_OF_PERICENTER,MEAN_ANOMALY,EPHEMERIS_TYPE,CLASSIFICATION_TYPE,NORAD_CAT_ID,ELEMENT_SET_NO,REV_AT_EPOCH,BSTAR,MEAN_MOTION_DOT,MEAN_MOTION_DDOT
FLOCK 4G-14,2025-009BL,2026-05-21T04:32:13.008480,15.28630811,.00055717,97.4022,223.1452,67.0314,293.1514,0,U,62667,999,7477,.27433601E-3,.7568E-4,0
JAY-C,2025-009BM,2026-05-21T05:35:47.608224,15.22149223,.0006053,97.3960,220.5944,80.3377,279.8543,0,U,62668,999,13227,.11217103E-3,.2503E-4,0
JAY-D1,2025-009BN,2026-05-21T05:34:32.569824,15.22121865,.00068379,97.4030,221.0087,82.6023,277.5990,0,U,62669,999,13227,.11182009E-3,.2494E-4,0
FLOCK 4G-10,2025-009BP,2026-05-21T04:52:26.649408,15.28670497,.00059151,97.3923,222.5225,80.9863,279.2046,0,U,62670,999,13241,.2544284E-3,.7022E-4,0
SKYBEE-A01,2025-009BQ,2026-05-21T05:49:01.881696,15.20858624,.00068523,97.3991,220.3040,74.5251,285.6741,0,U,62671,999,13224,.79700594E-4,.1692E-4,0
TRANSPORTER-12 OBJECT BR,2025-009BR,2026-05-21T05:20:34.793952,15.22708007,.0006192,97.3953,220.7354,76.6570,283.5356,0,U,62672,999,13228,.12535059E-3,.2853E-4,0
LEO EXPRESS 2,2025-009BS,2026-05-19T23:32:39.901632,15.25623836,.00045025,97.4418,214.1566,123.3899,236.7770,0,U,62673,999,13229,.16102543E-3,.4021E-4,0
TRANSPORTER-12 OBJECT BT,2025-009BT,2026-05-21T04:07:42.027744,15.29511894,.00057191,97.4054,223.7083,62.5306,297.6515,0,U,62674,999,13243,.28335269E-3,.8034E-4,0
FLOCK 4G-36,2025-009BU,2026-05-21T04:45:00.573984,15.28744407,.00058467,97.4014,223.0756,69.8630,290.3238,0,U,62675,999,7477,.24909702E-3,.6888E-4,0
FOSSASAT-2E19 (TAT-E),2025-009BV,2026-05-21T04:52:09.008256,15.20990960,.00068095,97.3963,219.9640,78.8663,281.3338,0,U,62676,999,7459,.84640834E-4,.1808E-4,0
ELEVATION-1,2025-009BW,2026-05-21T04:17:53.904768,15.40436564,.00043216,97.3834,226.0919,73.2216,286.9504,0,U,62677,999,13266,.46169306E-3,.18629E-3,0
FLOCK 4G-15,2025-009BX,2026-05-21T04:58:24.844800,15.28775996,.00058967,97.4013,223.2202,66.1922,293.9935,0,U,62678,999,13242,.25822267E-3,.7151E-4,0
FLOCK 4G-30,2025-009BY,2026-05-21T04:24:45.840096,15.30122675,.00043662,97.3919,222.5614,84.8586,275.3152,0,U,62679,999,13241,.87460223E-3,.25483E-3,0
FLOCK 4G-18,2025-009BZ,2026-05-21T04:56:02.649408,15.28713788,.00065322,97.4013,223.0453,75.8925,284.3040,0,U,62680,999,13241,.23347887E-3,.6446E-4,0
FLOCK 4G-17,2025-009CA,2026-05-21T04:11:01.257504,15.28930207,.00059769,97.3923,222.7121,79.9868,280.2046,0,U,62681,999,13242,.27352272E-3,.7616E-4,0
FOREST-3,2025-009CB,2026-05-21T04:34:11.894880,15.24415134,.00066247,97.3903,221.0146,84.8876,275.3117,0,U,62682,999,13232,.1788749E-3,.4317E-4,0
IRIS-F2,2025-009CD,2026-05-20T06:31:10.813152,15.25992777,.000689,97.3891,220.3568,92.6907,267.5120,0,U,62684,999,13220,.12787E-3,.3216E-4,0
FLOCK 4G-33,2025-009CE,2026-05-21T05:16:24.614976,15.25109484,.00069656,97.3944,221.4067,74.2214,285.9791,0,U,62685,999,7469,.17852481E-3,.44E-4,0
FOSSASAT-2E18 (TAT-A),2025-009CF,2026-05-21T03:46:12.864576,15.20886670,.00076003,97.3976,219.9806,76.7836,283.4247,0,U,62686,999,7458,.84895433E-4,.1809E-4,0
BLUEBON,2025-009CH,2026-05-21T04:21:45.651168,15.30266395,.00030958,97.3982,224.3622,89.5679,270.5917,0,U,62688,999,7484,.19675241E-3,.5684E-4,0
TRANSPORTER-12 OBJECT CL,2025-009CL,2026-05-21T04:01:41.501280,15.43832393,.00006641,97.3762,225.9155,300.0342,60.0840,0,U,62691,999,7502,.57146355E-3,.25863E-3,0
LEMUR-2-WILSON,2025-009CP,2026-05-21T04:34:17.658624,14.95031625,.0004642,97.7029,220.1313,117.3987,242.7707,0,U,62694,999,7332,.11294956E-3,.1179E-4,0
CONNECTA IOT-8,2025-009CQ,2026-05-21T03:58:28.100064,14.93142480,.00043402,97.7080,219.5571,92.7866,267.3851,0,U,62695,999,7326,.85723405E-4,.839E-5,0
LEMUR-2-STAR-FOX,2025-009CR,2026-05-21T04:24:05.603616,15.02029416,.00016401,97.6893,223.0025,188.9187,171.2008,0,U,62696,999,7350,.433575E-3,.5627E-4,0
IRIDE-MS2-HEO-1,2025-009CS,2026-05-21T05:48:16.167456,14.94287416,.00039463,97.7046,220.0463,96.8137,263.3532,0,U,62697,999,7331,.1393268E-3,.144E-4,0
ICEYE-X42,2025-009CT,2026-05-21T04:14:33.310752,14.91852203,.00017377,97.7397,219.9764,102.6060,257.5354,0,U,62698,999,7326,.15362821E-3,.1496E-4,0
LEMUR-2-ARIANNA,2025-009CU,2026-05-21T04:21:00.622080,15.01981667,.0001982,97.6840,222.7959,206.3606,153.7518,0,U,62699,999,7350,.48112369E-3,.6244E-4,0
ICEYE-X41,2025-009CV,2026-05-21T04:38:50.633376,14.96557425,.00030494,97.7072,221.1166,105.2833,254.8726,0,U,62700,999,7337,.13578281E-3,.1487E-4,0
FIREFLY-1,2025-009CW,2026-05-21T06:44:35.240352,14.92787834,.0005443,97.7071,219.9693,64.3344,295.8437,0,U,62701,999,7330,.88696638E-4,.861E-5,0
NORSAT 4,2025-009CX,2026-05-21T06:31:58.648512,14.94930872,.00030318,97.7048,220.4502,112.4441,247.7101,0,U,62702,999,7334,.87814815E-4,.902E-5,0
